[{"OBJECT_NAME":"STARLINK-1686","OBJECT_ID":"2020-062D","EPOCH":"2026-03-09T22:36:24.211296","MEAN_MOTION":15.70442116,"ECCENTRICITY":0.00055257,"INCLINATION":53.0437,"RA_OF_ASC_NODE":313.2055,"ARG_OF_PERICENTER":281.1531,"MEAN_ANOMALY":78.8864,"EPHEMERIS_TYPE":0,"CLASSIFICATION_TYPE":"U","NORAD_CAT_ID":46328,"ELEMENT_SET_NO":999,"REV_AT_EPOCH":30522,"BSTAR":0.00099254031,"MEAN_MOTION_DOT":0.0012535,"MEAN_MOTION_DDOT":0},{"OBJECT_NAME":"STARLINK-11548 [DTC]","OBJECT_ID":"2025-019A","EPOCH":"2026-03-08T22:11:10.516128","MEAN_MOTION":15.70915347,"ECCENTRICITY":0.00023283,"INCLINATION":42.9982,"RA_OF_ASC_NODE":310.304,"ARG_OF_PERICENTER":274.6141,"MEAN_ANOMALY":85.446,"EPHEMERIS_TYPE":0,"CLASSIFICATION_TYPE":"U","NORAD_CAT_ID":62829,"ELEMENT_SET_NO":999,"REV_AT_EPOCH":6376,"BSTAR":0.00082002419,"MEAN_MOTION_DOT":0.00106473,"MEAN_MOTION_DDOT":0}]
